[{"OBJECT_NAME":"STARLINK-34251","OBJECT_ID":"2025-117C","EPOCH":"2026-03-09T05:45:20.714112","MEAN_MOTION":15.30197405,"ECCENTRICITY":0.00011356,"INCLINATION":53.1616,"RA_OF_ASC_NODE":41.9196,"ARG_OF_PERICENTER":108.161,"MEAN_ANOMALY":251.9514,"EPHEMERIS_TYPE":0,"CLASSIFICATION_TYPE":"U","NORAD_CAT_ID":64205,"ELEMENT_SET_NO":999,"REV_AT_EPOCH":4445,"BSTAR":0.00085047229,"MEAN_MOTION_DOT":0.00024912,"MEAN_MOTION_DDOT":0},{"OBJECT_NAME":"JD 3","OBJECT_ID":"1984-012F","EPOCH":"2026-03-09T20:12:08.260128","MEAN_MOTION":13.88723209,"ECCENTRICITY":0.07313396,"INCLINATION":63.3002,"RA_OF_ASC_NODE":240.1222,"ARG_OF_PERICENTER":124.9076,"MEAN_ANOMALY":242.2952,"EPHEMERIS_TYPE":0,"CLASSIFICATION_TYPE":"U","NORAD_CAT_ID":14795,"ELEMENT_SET_NO":999,"REV_AT_EPOCH":34086,"BSTAR":0.00089007399,"MEAN_MOTION_DOT":0.00010672,"MEAN_MOTION_DDOT":0}]
